{
  "type": "FeatureCollection",
  "features": [
    {
      "type": "Feature",
      "properties": {
        "norad_id": 66561,
        "name": "STARLINK-35305",
        "group": "last-30-days",
        "lat": 7.7567374630645185,
        "lon": -10.766954748371745,
        "alt_km": 343.50600817027953,
        "timestamp": "2025-12-03T04:52:28.421310+00:00",
        "meta_object_name": "STARLINK-35305",
        "meta_object_id": "2025-268E",
        "meta_epoch": "2025-12-02T20:00:03.000384",
        "meta_mean_motion": 15.76189912,
        "meta_eccentricity": 0.0001413,
        "meta_inclination": 42.9977,
        "meta_ra_of_asc_node": 179.885,
        "meta_arg_of_pericenter": 273.8117,
        "meta_mean_anomaly": 314.8671,
        "meta_ephemeris_type": 0,
        "meta_classification_type": "U",
        "meta_norad_cat_id": 66561,
        "meta_element_set_no": 999,
        "meta_rev_at_epoch": 302,
        "meta_bstar": -0.0093993,
        "meta_mean_motion_dot": -0.01353927,
        "meta_mean_motion_ddot": 0,
        "tle_line1": "1 66561U 25268E   25336.83336806 -.01353927  00000+0 -93993-2 0  9999",
        "tle_line2": "2 66561  42.9977 179.8850 0001413 273.8117 314.8671 15.76189912  3024"
      },
      "geometry": {
        "type": "Point",
        "coordinates": [
          -10.766954748371745,
          7.7567374630645185
        ]
      }
    },
    {
      "type": "Feature",
      "properties": {
        "norad_id": 66562,
        "name": "STARLINK-35579",
        "group": "last-30-days",
        "lat": 9.049211943516926,
        "lon": -12.198096724253494,
        "alt_km": 343.2393903743814,
        "timestamp": "2025-12-03T04:52:28.421320+00:00",
        "meta_object_name": "STARLINK-35579",
        "meta_object_id": "2025-268F",
        "meta_epoch": "2025-12-02T20:00:03.000384",
        "meta_mean_motion": 15.76222386,
        "meta_eccentricity": 0.0001416,
        "meta_inclination": 42.9977,
        "meta_ra_of_asc_node": 179.8896,
        "meta_arg_of_pericenter": 269.8299,
        "meta_mean_anomaly": 316.9001,
        "meta_ephemeris_type": 0,
        "meta_classification_type": "U",
        "meta_norad_cat_id": 66562,
        "meta_element_set_no": 999,
        "meta_rev_at_epoch": 307,
        "meta_bstar": -0.0095631,
        "meta_mean_motion_dot": -0.01376702,
        "meta_mean_motion_ddot": 0,
        "tle_line1": "1 66562U 25268F   25336.83336806 -.01376702  00000+0 -95631-2 0  9997",
        "tle_line2": "2 66562  42.9977 179.8896 0001416 269.8299 316.9001 15.76222386  3072"
      },
      "geometry": {
        "type": "Point",
        "coordinates": [
          -12.198096724253494,
          9.049211943516926
        ]
      }
    },
    {
      "type": "Feature",
      "properties": {
        "norad_id": 66563,
        "name": "STARLINK-35437",
        "group": "last-30-days",
        "lat": 6.458252306185469,
        "lon": -9.34402739208891,
        "alt_km": 343.6547799581085,
        "timestamp": "2025-12-03T04:52:28.421330+00:00",
        "meta_object_name": "STARLINK-35437",
        "meta_object_id": "2025-268G",
        "meta_epoch": "2025-12-02T20:00:03.000384",
        "meta_mean_motion": 15.76124296,
        "meta_eccentricity": 0.0001433,
        "meta_inclination": 42.9976,
        "meta_ra_of_asc_node": 179.8796,
        "meta_arg_of_pericenter": 270.0493,
        "meta_mean_anomaly": 320.6135,
        "meta_ephemeris_type": 0,
        "meta_classification_type": "U",
        "meta_norad_cat_id": 66563,
        "meta_element_set_no": 999,
        "meta_rev_at_epoch": 307,
        "meta_bstar": -0.0090935,
        "meta_mean_motion_dot": -0.01311087,
        "meta_mean_motion_ddot": 0,
        "tle_line1": "1 66563U 25268G   25336.83336806 -.01311087  00000+0 -90935-2 0  9995",
        "tle_line2": "2 66563  42.9976 179.8796 0001433 270.0493 320.6135 15.76124296  3071"
      },
      "geometry": {
        "type": "Point",
        "coordinates": [
          -9.34402739208891,
          6.458252306185469
        ]
      }
    },
    {
      "type": "Feature",
      "properties": {
        "norad_id": 66564,
        "name": "STARLINK-35358",
        "group": "last-30-days",
        "lat": 5.157757574984852,
        "lon": -7.929722299137109,
        "alt_km": 343.8912138545966,
        "timestamp": "2025-12-03T04:52:28.421340+00:00",
        "meta_object_name": "STARLINK-35358",
        "meta_object_id": "2025-268H",
        "meta_epoch": "2025-12-02T20:00:03.000384",
        "meta_mean_motion": 15.76095697,
        "meta_eccentricity": 0.00015,
        "meta_inclination": 42.9975,
        "meta_ra_of_asc_node": 179.8751,
        "meta_arg_of_pericenter": 272.8541,
        "meta_mean_anomaly": 319.7521,
        "meta_ephemeris_type": 0,
        "meta_classification_type": "U",
        "meta_norad_cat_id": 66564,
        "meta_element_set_no": 999,
        "meta_rev_at_epoch": 302,
        "meta_bstar": -0.0089232,
        "meta_mean_motion_dot": -0.01287607,
        "meta_mean_motion_ddot": 0,
        "tle_line1": "1 66564U 25268H   25336.83336806 -.01287607  00000+0 -89232-2 0  9994",
        "tle_line2": "2 66564  42.9975 179.8751 0001500 272.8541 319.7521 15.76095697  3026"
      },
      "geometry": {
        "type": "Point",
        "coordinates": [
          -7.929722299137109,
          5.157757574984852
        ]
      }
    },
    {
      "type": "Feature",
      "properties": {
        "norad_id": 66565,
        "name": "STARLINK-35893",
        "group": "last-30-days",
        "lat": 3.8573502961466364,
        "lon": -6.525385286423678,
        "alt_km": 344.2450032767556,
        "timestamp": "2025-12-03T04:52:28.421350+00:00",
        "meta_object_name": "STARLINK-35893",
        "meta_object_id": "2025-268J",
        "meta_epoch": "2025-12-02T20:00:03.000384",
        "meta_mean_motion": 15.76059815,
        "meta_eccentricity": 0.0001534,
        "meta_inclination": 42.9978,
        "meta_ra_of_asc_node": 179.8698,
        "meta_arg_of_pericenter": 279.294,
        "meta_mean_anomaly": 315.2656,
        "meta_ephemeris_type": 0,
        "meta_classification_type": "U",
        "meta_norad_cat_id": 66565,
        "meta_element_set_no": 999,
        "meta_rev_at_epoch": 307,
        "meta_bstar": -0.0088282,
        "meta_mean_motion_dot": -0.01273475,
        "meta_mean_motion_ddot": 0,
        "tle_line1": "1 66565U 25268J   25336.83336806 -.01273475  00000+0 -88282-2 0  9997",
        "tle_line2": "2 66565  42.9978 179.8698 0001534 279.2940 315.2656 15.76059815  3078"
      },
      "geometry": {
        "type": "Point",
        "coordinates": [
          -6.525385286423678,
          3.8573502961466364
        ]
      }
    },
    {
      "type": "Feature",
      "properties": {
        "norad_id": 66566,
        "name": "STARLINK-35871",
        "group": "last-30-days",
        "lat": 2.548312665156242,
        "lon": -5.118289609730046,
        "alt_km": 344.4401101329786,
        "timestamp": "2025-12-03T04:52:28.421360+00:00",
        "meta_object_name": "STARLINK-35871",
        "meta_object_id": "2025-268K",
        "meta_epoch": "2025-12-02T20:00:03.000384",
        "meta_mean_motion": 15.75942256,
        "meta_eccentricity": 0.0001561,
        "meta_inclination": 42.9979,
        "meta_ra_of_asc_node": 179.8647,
        "meta_arg_of_pericenter": 278.914,
        "meta_mean_anomaly": 317.6637,
        "meta_ephemeris_type": 0,
        "meta_classification_type": "U",
        "meta_norad_cat_id": 66566,
        "meta_element_set_no": 999,
        "meta_rev_at_epoch": 307,
        "meta_bstar": -0.0080574,
        "meta_mean_motion_dot": -0.0114829,
        "meta_mean_motion_ddot": 0,
        "tle_line1": "1 66566U 25268K   25336.83336806 -.01148290  00000+0 -80574-2 0  9990",
        "tle_line2": "2 66566  42.9979 179.8647 0001561 278.9140 317.6637 15.75942256  3076"
      },
      "geometry": {
        "type": "Point",
        "coordinates": [
          -5.118289609730046,
          2.548312665156242
        ]
      }
    },
    {
      "type": "Feature",
      "properties": {
        "norad_id": 66567,
        "name": "STARLINK-35825",
        "group": "last-30-days",
        "lat": 1.2473117167047456,
        "lon": -3.724118658944356,
        "alt_km": 344.5421877900135,
        "timestamp": "2025-12-03T04:52:28.421369+00:00",
        "meta_object_name": "STARLINK-35825",
        "meta_object_id": "2025-268L",
        "meta_epoch": "2025-12-02T20:00:03.000384",
        "meta_mean_motion": 15.75862328,
        "meta_eccentricity": 0.0001445,
        "meta_inclination": 42.9979,
        "meta_ra_of_asc_node": 179.8599,
        "meta_arg_of_pericenter": 274.0522,
        "meta_mean_anomaly": 324.5081,
        "meta_ephemeris_type": 0,
        "meta_classification_type": "U",
        "meta_norad_cat_id": 66567,
        "meta_element_set_no": 999,
        "meta_rev_at_epoch": 307,
        "meta_bstar": -0.0076601,
        "meta_mean_motion_dot": -0.01093964,
        "meta_mean_motion_ddot": 0,
        "tle_line1": "1 66567U 25268L   25336.83336806 -.01093964  00000+0 -76601-2 0  9994",
        "tle_line2": "2 66567  42.9979 179.8599 0001445 274.0522 324.5081 15.75862328  3076"
      },
      "geometry": {
        "type": "Point",
        "coordinates": [
          -3.724118658944356,
          1.2473117167047456
        ]
      }
    }
  ]
}